{
  "type": "FeatureCollection",
  "features": [
    {
      "type": "Feature",
      "properties": {
        "norad_id": 41948,
        "name": "CARTOSAT-2D",
        "group": "resource",
        "lat": -48.69137780754012,
        "lon": -136.85278344133096,
        "alt_km": 514.8268484575165,
        "timestamp": "2025-12-20T07:33:50.461131+00:00",
        "meta_object_name": "CARTOSAT-2D",
        "meta_object_id": "2017-008A",
        "meta_epoch": "2025-12-19T22:39:19.910880",
        "meta_mean_motion": 15.19324567,
        "meta_eccentricity": 0.00052873,
        "meta_inclination": 97.4389,
        "meta_ra_of_asc_node": 51.3321,
        "meta_arg_of_pericenter": 139.7476,
        "meta_mean_anomaly": 220.4151,
        "meta_ephemeris_type": 0,
        "meta_classification_type": "U",
        "meta_norad_cat_id": 41948,
        "meta_element_set_no": 999,
        "meta_rev_at_epoch": 49036,
        "meta_bstar": 0.00012125005,
        "meta_mean_motion_dot": 2.493e-05,
        "meta_mean_motion_ddot": 0,
        "tle_line1": "1 41948U 17008A   25353.94398045  .00002493  00000+0  12125-3 0  9993",
        "tle_line2": "2 41948  97.4389  51.3321 0005287 139.7476 220.4151 15.19324567490362"
      },
      "geometry": {
        "type": "Point",
        "coordinates": [
          -136.85278344133096,
          -48.69137780754012
        ]
      }
    },
    {
      "type": "Feature",
      "properties": {
        "norad_id": 42063,
        "name": "SENTINEL-2B",
        "group": "resource",
        "lat": -56.63279238411519,
        "lon": 79.89466675399747,
        "alt_km": 796.7775025149303,
        "timestamp": "2025-12-20T07:33:50.461141+00:00",
        "meta_object_name": "SENTINEL-2B",
        "meta_object_id": "2017-013A",
        "meta_epoch": "2025-12-19T21:45:46.736352",
        "meta_mean_motion": 14.30812455,
        "meta_eccentricity": 0.00011795,
        "meta_inclination": 98.5715,
        "meta_ra_of_asc_node": 66.2526,
        "meta_arg_of_pericenter": 91.5648,
        "meta_mean_anomaly": 268.567,
        "meta_ephemeris_type": 0,
        "meta_classification_type": "U",
        "meta_norad_cat_id": 42063,
        "meta_element_set_no": 999,
        "meta_rev_at_epoch": 45900,
        "meta_bstar": -3.6353294e-05,
        "meta_mean_motion_dot": -1.39e-06,
        "meta_mean_motion_ddot": 0,
        "tle_line1": "1 42063U 17013A   25353.90679093 -.00000139  00000+0 -36353-4 0  9996",
        "tle_line2": "2 42063  98.5715  66.2526 0001179  91.5648 268.5670 14.30812455459005"
      },
      "geometry": {
        "type": "Point",
        "coordinates": [
          79.89466675399747,
          -56.63279238411519
        ]
      }
    },
    {
      "type": "Feature",
      "properties": {
        "norad_id": 42767,
        "name": "CARTOSAT-2E",
        "group": "resource",
        "lat": 41.22377217465654,
        "lon": -121.60805138205222,
        "alt_km": 504.05969670122886,
        "timestamp": "2025-12-20T07:33:50.461152+00:00",
        "meta_object_name": "CARTOSAT-2E",
        "meta_object_id": "2017-036C",
        "meta_epoch": "2025-12-19T23:03:13.421664",
        "meta_mean_motion": 15.19264793,
        "meta_eccentricity": 0.00024148,
        "meta_inclination": 97.4558,
        "meta_ra_of_asc_node": 51.4532,
        "meta_arg_of_pericenter": 202.0401,
        "meta_mean_anomaly": 158.0731,
        "meta_ephemeris_type": 0,
        "meta_classification_type": "U",
        "meta_norad_cat_id": 42767,
        "meta_element_set_no": 999,
        "meta_rev_at_epoch": 47093,
        "meta_bstar": 0.00013630305,
        "meta_mean_motion_dot": 2.805e-05,
        "meta_mean_motion_ddot": 0,
        "tle_line1": "1 42767U 17036C   25353.96057201  .00002805  00000+0  13630-3 0  9991",
        "tle_line2": "2 42767  97.4558  51.4532 0002414 202.0401 158.0731 15.19264793470931"
      },
      "geometry": {
        "type": "Point",
        "coordinates": [
          -121.60805138205222,
          41.22377217465654
        ]
      }
    },
    {
      "type": "Feature",
      "properties": {
        "norad_id": 42920,
        "name": "FORMOSAT-5",
        "group": "resource",
        "lat": 48.54026109883921,
        "lon": -102.07204005687784,
        "alt_km": 724.5204765098824,
        "timestamp": "2025-12-20T07:33:50.461162+00:00",
        "meta_object_name": "FORMOSAT-5",
        "meta_object_id": "2017-049A",
        "meta_epoch": "2025-12-19T21:01:52.106592",
        "meta_mean_motion": 14.50764438,
        "meta_eccentricity": 0.00098421,
        "meta_inclination": 98.2445,
        "meta_ra_of_asc_node": 68.0523,
        "meta_arg_of_pericenter": 277.3114,
        "meta_mean_anomaly": 82.6962,
        "meta_ephemeris_type": 0,
        "meta_classification_type": "U",
        "meta_norad_cat_id": 42920,
        "meta_element_set_no": 999,
        "meta_rev_at_epoch": 44067,
        "meta_bstar": 4.6915533e-05,
        "meta_mean_motion_dot": 1.41e-06,
        "meta_mean_motion_ddot": 0,
        "tle_line1": "1 42920U 17049A   25353.87629753  .00000141  00000+0  46916-4 0  9998",
        "tle_line2": "2 42920  98.2445  68.0523 0009842 277.3114  82.6962 14.50764438440679"
      },
      "geometry": {
        "type": "Point",
        "coordinates": [
          -102.07204005687784,
          48.54026109883921
        ]
      }
    },
    {
      "type": "Feature",
      "properties": {
        "norad_id": 42969,
        "name": "SENTINEL-5P",
        "group": "resource",
        "lat": 31.94261816152057,
        "lon": -72.69675771009726,
        "alt_km": 824.6647223458849,
        "timestamp": "2025-12-20T07:33:50.461173+00:00",
        "meta_object_name": "SENTINEL-5P",
        "meta_object_id": "2017-064A",
        "meta_epoch": "2025-12-19T14:29:43.433088",
        "meta_mean_motion": 14.1951907,
        "meta_eccentricity": 0.000102,
        "meta_inclination": 98.7794,
        "meta_ra_of_asc_node": 292.1275,
        "meta_arg_of_pericenter": 90.2073,
        "meta_mean_anomaly": 269.922,
        "meta_ephemeris_type": 0,
        "meta_classification_type": "U",
        "meta_norad_cat_id": 42969,
        "meta_element_set_no": 999,
        "meta_rev_at_epoch": 42408,
        "meta_bstar": 3.7143e-05,
        "meta_mean_motion_dot": 3.4e-07,
        "meta_mean_motion_ddot": 0,
        "tle_line1": "1 42969U 17064A   25353.60397492  .00000034  00000+0  37143-4 0  9994",
        "tle_line2": "2 42969  98.7794 292.1275 0001020  90.2073 269.9220 14.19519070424083"
      },
      "geometry": {
        "type": "Point",
        "coordinates": [
          -72.69675771009726,
          31.94261816152057
        ]
      }
    },
    {
      "type": "Feature",
      "properties": {
        "norad_id": 42987,
        "name": "SKYSAT-C11",
        "group": "resource",
        "lat": 33.02105790451902,
        "lon": 127.14096519077471,
        "alt_km": 421.08042118465437,
        "timestamp": "2025-12-20T07:33:50.461183+00:00",
        "meta_object_name": "SKYSAT-C11",
        "meta_object_id": "2017-068A",
        "meta_epoch": "2025-12-19T22:06:37.738368",
        "meta_mean_motion": 15.47735322,
        "meta_eccentricity": 0.00011445,
        "meta_inclination": 97.4144,
        "meta_ra_of_asc_node": 131.5924,
        "meta_arg_of_pericenter": 100.1685,
        "meta_mean_anomaly": 259.9694,
        "meta_ephemeris_type": 0,
        "meta_classification_type": "U",
        "meta_norad_cat_id": 42987,
        "meta_element_set_no": 999,
        "meta_rev_at_epoch": 45542,
        "meta_bstar": 0.00031777353,
        "meta_mean_motion_dot": 0.00016374,
        "meta_mean_motion_ddot": 0,
        "tle_line1": "1 42987U 17068A   25353.92127012  .00016374  00000+0  31777-3 0  9992",
        "tle_line2": "2 42987  97.4144 131.5924 0001144 100.1685 259.9694 15.47735322455420"
      },
      "geometry": {
        "type": "Point",
        "coordinates": [
          127.14096519077471,
          33.02105790451902
        ]
      }
    },
    {
      "type": "Feature",
      "properties": {
        "norad_id": 42988,
        "name": "SKYSAT-C10",
        "group": "resource",
        "lat": 52.14908810882421,
        "lon": 115.52475066670853,
        "alt_km": 461.16524441078127,
        "timestamp": "2025-12-20T07:33:50.461193+00:00",
        "meta_object_name": "SKYSAT-C10",
        "meta_object_id": "2017-068B",
        "meta_epoch": "2025-12-19T20:21:46.673568",
        "meta_mean_motion": 15.3220525,
        "meta_eccentricity": 0.00054481,
        "meta_inclination": 97.4263,
        "meta_ra_of_asc_node": 124.7195,
        "meta_arg_of_pericenter": 84.1499,
        "meta_mean_anomaly": 276.0364,
        "meta_ephemeris_type": 0,
        "meta_classification_type": "U",
        "meta_norad_cat_id": 42988,
        "meta_element_set_no": 999,
        "meta_rev_at_epoch": 45488,
        "meta_bstar": 0.0002597531,
        "meta_mean_motion_dot": 8.002e-05,
        "meta_mean_motion_ddot": 0,
        "tle_line1": "1 42988U 17068B   25353.84845687  .00008002  00000+0  25975-3 0  9991",
        "tle_line2": "2 42988  97.4263 124.7195 0005448  84.1499 276.0364 15.32205250454881"
      },
      "geometry": {
        "type": "Point",
        "coordinates": [
          115.52475066670853,
          52.14908810882421
        ]
      }
    }
  ]
}